ONEWEB-0150             
1 48047U 21025F   26123.08197008  .00000171  00000+0  43244-3 0  9998
2 48047  87.8962 329.1984 0001711  93.6118 266.5207 13.13471219247620
ONEWEB-0107             
1 48048U 21025G   26123.08365013  .00000221  00000+0  57051-3 0  9999
2 48048  87.8964 329.1934 0001489  86.4883 273.6417 13.13471775247606
ONEWEB-0101             
1 48049U 21025H   26123.27494099 -.00000027  00000+0 -10889-3 0  9992
2 48049  87.8950 329.1754 0001645  81.7738 278.3578 13.13470455247607
ONEWEB-0113             
1 48050U 21025J   26123.08540159  .00000202  00000+0  51342-3 0  9994
2 48050  87.8957 329.1275 0002040  89.8589 270.2774 13.13947920247680
ONEWEB-0112             
1 48051U 21025K   26123.08874410  .00000299  00000+0  78288-3 0  9999
2 48051  87.8964 329.1901 0001607  79.2365 280.8945 13.13470954247672
ONEWEB-0156             
1 48052U 21025L   26123.09720743  .00000360  00000+0  95008-3 0  9998
2 48052  87.8963 329.1990 0001631  89.1199 271.0117 13.13470409247658
ONEWEB-0161             
1 48053U 21025M   26123.07180597 -.00000089  00000+0 -27985-3 0  9993
2 48053  87.8951 329.2082 0001573  88.6875 271.4434 13.13471213247581
ONEWEB-0158             
1 48054U 21025N   26123.25971119  .00000270  00000+0  70558-3 0  9996
2 48054  87.8960 329.1660 0002025  81.5281 278.6077 13.13470675247739
ONEWEB-0157             
1 48055U 21025P   26123.13273735 -.00000211  00000+0 -61352-3 0  9992
2 48055  87.8964 329.1959 0001358  84.1735 275.9549 13.13470951247658
ONEWEB-0162             
1 48056U 21025Q   26123.10891536  .00000160  00000+0  40335-3 0  9994
2 48056  87.8957 329.2038 0001723  91.8429 268.2898 13.13470833247629
ONEWEB-0155             
1 48057U 21025R   26123.26817398  .00000117  00000+0  28439-3 0  9999
2 48057  87.8959 329.1683 0001632  81.5740 278.5574 13.13470772247782
ONEWEB-0149             
1 48058U 21025S   26123.29018479 -.00000298  00000+0 -85106-3 0  9992
2 48058  87.8964 329.1647 0001728  93.7764 266.3563 13.13470408247594
ONEWEB-0148             
1 48059U 21025T   26123.10058761  .00000467  00000+0  12435-2 0  9991
2 48059  87.8955 329.2134 0001543 106.2623 253.8676 13.13470897247695
ONEWEB-0160             
1 48060U 21025U   26123.26987792  .00000105  00000+0  25380-3 0  9998
2 48060  87.8956 329.1758 0002479  85.1129 275.0283 13.13469191247666
ONEWEB-0163             
1 48061U 21025V   26123.10227010  .00000444  00000+0  11821-2 0  9992
2 48061  87.8952 329.2022 0001455  84.0283 276.1012 13.13470695247764
ONEWEB-0159             
1 48062U 21025W   26123.09382011  .00000382  00000+0  10119-2 0  9994
2 48062  87.8963 329.1948 0001493  82.8535 277.2764 13.13473489247682
