[{"OBJECT_NAME":"ONEWEB-0150","OBJECT_ID":"2021-025F","EPOCH":"2026-05-03T01:58:02.214912","MEAN_MOTION":13.13471219,"ECCENTRICITY":0.0001711,"INCLINATION":87.8962,"RA_OF_ASC_NODE":329.1984,"ARG_OF_PERICENTER":93.6118,"MEAN_ANOMALY":266.5207,"EPHEMERIS_TYPE":0,"CLASSIFICATION_TYPE":"U","NORAD_CAT_ID":48047,"ELEMENT_SET_NO":999,"REV_AT_EPOCH":24762,"BSTAR":0.00043244,"MEAN_MOTION_DOT":1.71e-06,"MEAN_MOTION_DDOT":0.0},{"OBJECT_NAME":"ONEWEB-0107","OBJECT_ID":"2021-025G","EPOCH":"2026-05-03T02:00:27.371232","MEAN_MOTION":13.13471775,"ECCENTRICITY":0.0001489,"INCLINATION":87.8964,"RA_OF_ASC_NODE":329.1934,"ARG_OF_PERICENTER":86.4883,"MEAN_ANOMALY":273.6417,"EPHEMERIS_TYPE":0,"CLASSIFICATION_TYPE":"U","NORAD_CAT_ID":48048,"ELEMENT_SET_NO":999,"REV_AT_EPOCH":24760,"BSTAR":0.00057051,"MEAN_MOTION_DOT":2.21e-06,"MEAN_MOTION_DDOT":0.0},{"OBJECT_NAME":"ONEWEB-0101","OBJECT_ID":"2021-025H","EPOCH":"2026-05-03T06:35:54.901536","MEAN_MOTION":13.13470455,"ECCENTRICITY":0.0001645,"INCLINATION":87.895,"RA_OF_ASC_NODE":329.1754,"ARG_OF_PERICENTER":81.7738,"MEAN_ANOMALY":278.3578,"EPHEMERIS_TYPE":0,"CLASSIFICATION_TYPE":"U","NORAD_CAT_ID":48049,"ELEMENT_SET_NO":999,"REV_AT_EPOCH":24760,"BSTAR":-0.00010889000000000001,"MEAN_MOTION_DOT":-2.7e-07,"MEAN_MOTION_DDOT":0.0},{"OBJECT_NAME":"ONEWEB-0113","OBJECT_ID":"2021-025J","EPOCH":"2026-05-03T02:02:58.697376","MEAN_MOTION":13.1394792,"ECCENTRICITY":0.000204,"INCLINATION":87.8957,"RA_OF_ASC_NODE":329.1275,"ARG_OF_PERICENTER":89.8589,"MEAN_ANOMALY":270.2774,"EPHEMERIS_TYPE":0,"CLASSIFICATION_TYPE":"U","NORAD_CAT_ID":48050,"ELEMENT_SET_NO":999,"REV_AT_EPOCH":24768,"BSTAR":0.00051342,"MEAN_MOTION_DOT":2.02e-06,"MEAN_MOTION_DDOT":0.0},{"OBJECT_NAME":"ONEWEB-0112","OBJECT_ID":"2021-025K","EPOCH":"2026-05-03T02:07:47.490240","MEAN_MOTION":13.13470954,"ECCENTRICITY":0.0001607,"INCLINATION":87.8964,"RA_OF_ASC_NODE":329.1901,"ARG_OF_PERICENTER":79.2365,"MEAN_ANOMALY":280.8945,"EPHEMERIS_TYPE":0,"CLASSIFICATION_TYPE":"U","NORAD_CAT_ID":48051,"ELEMENT_SET_NO":999,"REV_AT_EPOCH":24767,"BSTAR":0.00078288,"MEAN_MOTION_DOT":2.99e-06,"MEAN_MOTION_DDOT":0.0},{"OBJECT_NAME":"ONEWEB-0156","OBJECT_ID":"2021-025L","EPOCH":"2026-05-03T02:19:58.721952","MEAN_MOTION":13.13470409,"ECCENTRICITY":0.0001631,"INCLINATION":87.8963,"RA_OF_ASC_NODE":329.199,"ARG_OF_PERICENTER":89.1199,"MEAN_ANOMALY":271.0117,"EPHEMERIS_TYPE":0,"CLASSIFICATION_TYPE":"U","NORAD_CAT_ID":48052,"ELEMENT_SET_NO":999,"REV_AT_EPOCH":24765,"BSTAR":0.0009500800000000001,"MEAN_MOTION_DOT":3.6e-06,"MEAN_MOTION_DDOT":0.0},{"OBJECT_NAME":"ONEWEB-0161","OBJECT_ID":"2021-025M","EPOCH":"2026-05-03T01:43:24.035808","MEAN_MOTION":13.13471213,"ECCENTRICITY":0.0001573,"INCLINATION":87.8951,"RA_OF_ASC_NODE":329.2082,"ARG_OF_PERICENTER":88.6875,"MEAN_ANOMALY":271.4434,"EPHEMERIS_TYPE":0,"CLASSIFICATION_TYPE":"U","NORAD_CAT_ID":48053,"ELEMENT_SET_NO":999,"REV_AT_EPOCH":24758,"BSTAR":-0.00027985,"MEAN_MOTION_DOT":-8.9e-07,"MEAN_MOTION_DDOT":0.0},{"OBJECT_NAME":"ONEWEB-0158","OBJECT_ID":"2021-025N","EPOCH":"2026-05-03T06:13:59.046816","MEAN_MOTION":13.13470675,"ECCENTRICITY":0.0002025,"INCLINATION":87.896,"RA_OF_ASC_NODE":329.166,"ARG_OF_PERICENTER":81.5281,"MEAN_ANOMALY":278.6077,"EPHEMERIS_TYPE":0,"CLASSIFICATION_TYPE":"U","NORAD_CAT_ID":48054,"ELEMENT_SET_NO":999,"REV_AT_EPOCH":24773,"BSTAR":0.00070558,"MEAN_MOTION_DOT":2.7e-06,"MEAN_MOTION_DDOT":0.0},{"OBJECT_NAME":"ONEWEB-0157","OBJECT_ID":"2021-025P","EPOCH":"2026-05-03T03:11:08.507040","MEAN_MOTION":13.13470951,"ECCENTRICITY":0.0001358,"INCLINATION":87.8964,"RA_OF_ASC_NODE":329.1959,"ARG_OF_PERICENTER":84.1735,"MEAN_ANOMALY":275.9549,"EPHEMERIS_TYPE":0,"CLASSIFICATION_TYPE":"U","NORAD_CAT_ID":48055,"ELEMENT_SET_NO":999,"REV_AT_EPOCH":24765,"BSTAR":-0.00061352,"MEAN_MOTION_DOT":-2.11e-06,"MEAN_MOTION_DDOT":0.0},{"OBJECT_NAME":"ONEWEB-0162","OBJECT_ID":"2021-025Q","EPOCH":"2026-05-03T02:36:50.287104","MEAN_MOTION":13.13470833,"ECCENTRICITY":0.0001723,"INCLINATION":87.8957,"RA_OF_ASC_NODE":329.2038,"ARG_OF_PERICENTER":91.8429,"MEAN_ANOMALY":268.2898,"EPHEMERIS_TYPE":0,"CLASSIFICATION_TYPE":"U","NORAD_CAT_ID":48056,"ELEMENT_SET_NO":999,"REV_AT_EPOCH":24762,"BSTAR":0.00040335,"MEAN_MOTION_DOT":1.6e-06,"MEAN_MOTION_DDOT":0.0},{"OBJECT_NAME":"ONEWEB-0155","OBJECT_ID":"2021-025R","EPOCH":"2026-05-03T06:26:10.231872","MEAN_MOTION":13.13470772,"ECCENTRICITY":0.0001632,"INCLINATION":87.8959,"RA_OF_ASC_NODE":329.1683,"ARG_OF_PERICENTER":81.574,"MEAN_ANOMALY":278.5574,"EPHEMERIS_TYPE":0,"CLASSIFICATION_TYPE":"U","NORAD_CAT_ID":48057,"ELEMENT_SET_NO":999,"REV_AT_EPOCH":24778,"BSTAR":0.00028439,"MEAN_MOTION_DOT":1.17e-06,"MEAN_MOTION_DDOT":0.0},{"OBJECT_NAME":"ONEWEB-0149","OBJECT_ID":"2021-025S","EPOCH":"2026-05-03T06:57:51.965856","MEAN_MOTION":13.13470408,"ECCENTRICITY":0.0001728,"INCLINATION":87.8964,"RA_OF_ASC_NODE":329.1647,"ARG_OF_PERICENTER":93.7764,"MEAN_ANOMALY":266.3563,"EPHEMERIS_TYPE":0,"CLASSIFICATION_TYPE":"U","NORAD_CAT_ID":48058,"ELEMENT_SET_NO":999,"REV_AT_EPOCH":24759,"BSTAR":-0.0008510600000000001,"MEAN_MOTION_DOT":-2.98e-06,"MEAN_MOTION_DDOT":0.0},{"OBJECT_NAME":"ONEWEB-0148","OBJECT_ID":"2021-025T","EPOCH":"2026-05-03T02:24:50.769504","MEAN_MOTION":13.13470897,"ECCENTRICITY":0.0001543,"INCLINATION":87.8955,"RA_OF_ASC_NODE":329.2134,"ARG_OF_PERICENTER":106.2623,"MEAN_ANOMALY":253.8676,"EPHEMERIS_TYPE":0,"CLASSIFICATION_TYPE":"U","NORAD_CAT_ID":48059,"ELEMENT_SET_NO":999,"REV_AT_EPOCH":24769,"BSTAR":0.0012435,"MEAN_MOTION_DOT":4.67e-06,"MEAN_MOTION_DDOT":0.0},{"OBJECT_NAME":"ONEWEB-0160","OBJECT_ID":"2021-025U","EPOCH":"2026-05-03T06:28:37.452288","MEAN_MOTION":13.13469191,"ECCENTRICITY":0.0002479,"INCLINATION":87.8956,"RA_OF_ASC_NODE":329.1758,"ARG_OF_PERICENTER":85.1129,"MEAN_ANOMALY":275.0283,"EPHEMERIS_TYPE":0,"CLASSIFICATION_TYPE":"U","NORAD_CAT_ID":48060,"ELEMENT_SET_NO":999,"REV_AT_EPOCH":24766,"BSTAR":0.00025380000000000004,"MEAN_MOTION_DOT":1.05e-06,"MEAN_MOTION_DDOT":0.0},{"OBJECT_NAME":"ONEWEB-0163","OBJECT_ID":"2021-025V","EPOCH":"2026-05-03T02:27:16.136640","MEAN_MOTION":13.13470695,"ECCENTRICITY":0.0001455,"INCLINATION":87.8952,"RA_OF_ASC_NODE":329.2022,"ARG_OF_PERICENTER":84.0283,"MEAN_ANOMALY":276.1012,"EPHEMERIS_TYPE":0,"CLASSIFICATION_TYPE":"U","NORAD_CAT_ID":48061,"ELEMENT_SET_NO":999,"REV_AT_EPOCH":24776,"BSTAR":0.0011821,"MEAN_MOTION_DOT":4.44e-06,"MEAN_MOTION_DDOT":0.0},{"OBJECT_NAME":"ONEWEB-0159","OBJECT_ID":"2021-025W","EPOCH":"2026-05-03T02:15:06.057504","MEAN_MOTION":13.13473489,"ECCENTRICITY":0.0001493,"INCLINATION":87.8963,"RA_OF_ASC_NODE":329.1948,"ARG_OF_PERICENTER":82.8535,"MEAN_ANOMALY":277.2764,"EPHEMERIS_TYPE":0,"CLASSIFICATION_TYPE":"U","NORAD_CAT_ID":48062,"ELEMENT_SET_NO":999,"REV_AT_EPOCH":24768,"BSTAR":0.0010119,"MEAN_MOTION_DOT":3.82e-06,"MEAN_MOTION_DDOT":0.0}]